[{"OBJECT_NAME":"ONEWEB-0165","OBJECT_ID":"2021-031Z","EPOCH":"2026-03-09T17:09:57.006432","MEAN_MOTION":13.14502547,"ECCENTRICITY":0.0001924,"INCLINATION":87.8986,"RA_OF_ASC_NODE":309.5579,"ARG_OF_PERICENTER":84.5969,"MEAN_ANOMALY":275.538,"EPHEMERIS_TYPE":0,"CLASSIFICATION_TYPE":"U","NORAD_CAT_ID":48233,"ELEMENT_SET_NO":999,"REV_AT_EPOCH":23529,"BSTAR":7.3968278e-5,"MEAN_MOTION_DOT":4.0e-7,"MEAN_MOTION_DDOT":0},{"OBJECT_NAME":"SL-14 R\/B","OBJECT_ID":"1994-003B","EPOCH":"2026-03-09T17:41:22.645824","MEAN_MOTION":13.1700857,"ECCENTRICITY":0.00173324,"INCLINATION":82.5665,"RA_OF_ASC_NODE":157.3829,"ARG_OF_PERICENTER":94.1857,"MEAN_ANOMALY":18.9829,"EPHEMERIS_TYPE":0,"CLASSIFICATION_TYPE":"U","NORAD_CAT_ID":22970,"ELEMENT_SET_NO":999,"REV_AT_EPOCH":54389,"BSTAR":2.2491534e-5,"MEAN_MOTION_DOT":2.1e-7,"MEAN_MOTION_DDOT":0}]
